{
  "links" : {
    "next" : "https://api.nasa.gov/neo/rest/v1/feed?start_date=2005-11-16&end_date=2005-11-16&detailed=true&api_key=t0TVs3DtDT2H8Oy2Zy8m2eVrNsAVKAexjcZXUckd",
    "prev" : "https://api.nasa.gov/neo/rest/v1/feed?start_date=2005-11-14&end_date=2005-11-14&detailed=true&api_key=t0TVs3DtDT2H8Oy2Zy8m2eVrNsAVKAexjcZXUckd",
    "self" : "https://api.nasa.gov/neo/rest/v1/feed?start_date=2005-11-15&end_date=2005-11-15&detailed=true&api_key=t0TVs3DtDT2H8Oy2Zy8m2eVrNsAVKAexjcZXUckd"
  },
  "element_count" : 10,
  "near_earth_objects" : {
    "2005-11-15" : [ {
      "links" : {
        "self" : "https://api.nasa.gov/neo/rest/v1/neo/3731584?api_key=t0TVs3DtDT2H8Oy2Zy8m2eVrNsAVKAexjcZXUckd"
      },
      "neo_reference_id" : "3731584",
      "name" : "(2015 UF)",
      "nasa_jpl_url" : "http://ssd.jpl.nasa.gov/sbdb.cgi?sstr=3731584",
      "absolute_magnitude_h" : 19.8,
      "estimated_diameter" : {
        "kilometers" : {
          "estimated_diameter_min" : 0.2914439045,
          "estimated_diameter_max" : 0.6516883822
        },
        "meters" : {
          "estimated_diameter_min" : 291.4439045349,
          "estimated_diameter_max" : 651.6883821679
        },
        "miles" : {
          "estimated_diameter_min" : 0.1810947904,
          "estimated_diameter_max" : 0.4049402617
        },
        "feet" : {
          "estimated_diameter_min" : 956.1808197541,
          "estimated_diameter_max" : 2138.0853117517
        }
      },
      "is_potentially_hazardous_asteroid" : false,
      "close_approach_data" : [ {
        "close_approach_date" : "2005-11-15",
        "epoch_date_close_approach" : 1132041600000,
        "relative_velocity" : {
          "kilometers_per_second" : "12.4765213161",
          "kilometers_per_hour" : "44915.4767379564",
          "miles_per_hour" : "27908.7305319819"
        },
        "miss_distance" : {
          "astronomical" : "0.2853415135",
          "lunar" : "110.9978408813",
          "kilometers" : "42686480",
          "miles" : "26524150"
        },
        "orbiting_body" : "Earth"
      } ],
      "orbital_data" : {
        "orbit_id" : "25",
        "orbit_determination_date" : "2017-04-06 08:31:11",
        "orbit_uncertainty" : "5",
        "minimum_orbit_intersection" : ".12973",
        "jupiter_tisserand_invariant" : "3.428",
        "epoch_osculation" : "2458000.5",
        "eccentricity" : ".5250883373220177",
        "semi_major_axis" : "2.247258233666445",
        "inclination" : "5.99107518395032",
        "ascending_node_longitude" : "194.9501833479182",
        "orbital_period" : "1230.489458025074",
        "perihelion_distance" : "1.067249144217317",
        "perihelion_argument" : "251.7365455107984",
        "aphelion_distance" : "3.427267323115573",
        "perihelion_time" : "2457405.043766820502",
        "mean_anomaly" : "174.2105489377149",
        "mean_motion" : ".2925665048588041",
        "equinox" : "J2000"
      }
    }, {
      "links" : {
        "self" : "https://api.nasa.gov/neo/rest/v1/neo/2468910?api_key=t0TVs3DtDT2H8Oy2Zy8m2eVrNsAVKAexjcZXUckd"
      },
      "neo_reference_id" : "2468910",
      "name" : "468910 (2014 KQ76)",
      "nasa_jpl_url" : "http://ssd.jpl.nasa.gov/sbdb.cgi?sstr=2468910",
      "absolute_magnitude_h" : 21.5,
      "estimated_diameter" : {
        "kilometers" : {
          "estimated_diameter_min" : 0.1332155667,
          "estimated_diameter_max" : 0.2978790628
        },
        "meters" : {
          "estimated_diameter_min" : 133.2155666981,
          "estimated_diameter_max" : 297.8790627982
        },
        "miles" : {
          "estimated_diameter_min" : 0.0827762899,
          "estimated_diameter_max" : 0.1850934111
        },
        "feet" : {
          "estimated_diameter_min" : 437.0589598459,
          "estimated_diameter_max" : 977.2935443908
        }
      },
      "is_potentially_hazardous_asteroid" : true,
      "close_approach_data" : [ {
        "close_approach_date" : "2005-11-15",
        "epoch_date_close_approach" : 1132041600000,
        "relative_velocity" : {
          "kilometers_per_second" : "13.4175355995",
          "kilometers_per_hour" : "48303.128158033",
          "miles_per_hour" : "30013.6853824178"
        },
        "miss_distance" : {
          "astronomical" : "0.3678806474",
          "lunar" : "143.1055755615",
          "kilometers" : "55034160",
          "miles" : "34196644"
        },
        "orbiting_body" : "Earth"
      } ],
      "orbital_data" : {
        "orbit_id" : "28",
        "orbit_determination_date" : "2017-05-23 06:19:48",
        "orbit_uncertainty" : "1",
        "minimum_orbit_intersection" : ".0409294",
        "jupiter_tisserand_invariant" : "5.959",
        "epoch_osculation" : "2458000.5",
        "eccentricity" : ".4233477017426433",
        "semi_major_axis" : "1.007452536157145",
        "inclination" : "4.774411821602036",
        "ascending_node_longitude" : "128.0258111147024",
        "orbital_period" : "369.3476316941474",
        "perihelion_distance" : ".5809498203602207",
        "perihelion_argument" : "324.7389768674062",
        "aphelion_distance" : "1.43395525195407",
        "perihelion_time" : "2458146.754300941429",
        "mean_anomaly" : "217.4471749083402",
        "mean_motion" : ".974691507696229",
        "equinox" : "J2000"
      }
    }, {
      "links" : {
        "self" : "https://api.nasa.gov/neo/rest/v1/neo/2481127?api_key=t0TVs3DtDT2H8Oy2Zy8m2eVrNsAVKAexjcZXUckd"
      },
      "neo_reference_id" : "2481127",
      "name" : "481127 (2005 UJ6)",
      "nasa_jpl_url" : "http://ssd.jpl.nasa.gov/sbdb.cgi?sstr=2481127",
      "absolute_magnitude_h" : 21.5,
      "estimated_diameter" : {
        "kilometers" : {
          "estimated_diameter_min" : 0.1332155667,
          "estimated_diameter_max" : 0.2978790628
        },
        "meters" : {
          "estimated_diameter_min" : 133.2155666981,
          "estimated_diameter_max" : 297.8790627982
        },
        "miles" : {
          "estimated_diameter_min" : 0.0827762899,
          "estimated_diameter_max" : 0.1850934111
        },
        "feet" : {
          "estimated_diameter_min" : 437.0589598459,
          "estimated_diameter_max" : 977.2935443908
        }
      },
      "is_potentially_hazardous_asteroid" : false,
      "close_approach_data" : [ {
        "close_approach_date" : "2005-11-15",
        "epoch_date_close_approach" : 1132041600000,
        "relative_velocity" : {
          "kilometers_per_second" : "12.0329643409",
          "kilometers_per_hour" : "43318.6716271169",
          "miles_per_hour" : "26916.5379340827"
        },
        "miss_distance" : {
          "astronomical" : "0.2609684881",
          "lunar" : "101.5167388916",
          "kilometers" : "39040328",
          "miles" : "24258536"
        },
        "orbiting_body" : "Earth"
      } ],
      "orbital_data" : {
        "orbit_id" : "18",
        "orbit_determination_date" : "2017-04-06 09:18:50",
        "orbit_uncertainty" : "1",
        "minimum_orbit_intersection" : ".124955",
        "jupiter_tisserand_invariant" : "5.649",
        "epoch_osculation" : "2458000.5",
        "eccentricity" : ".4161195746148604",
        "semi_major_axis" : "1.068451163273958",
        "inclination" : "18.9976614249665",
        "ascending_node_longitude" : "42.39515630621894",
        "orbital_period" : "403.3949352676462",
        "perihelion_distance" : ".6238477197156461",
        "perihelion_argument" : "131.369164383246",
        "aphelion_distance" : "1.513054606832271",
        "perihelion_time" : "2457818.795911248593",
        "mean_anomaly" : "162.1573952263573",
        "mean_motion" : ".8924256814507243",
        "equinox" : "J2000"
      }
    } ]
  }
}